{"type": "FeatureCollection", "features": [ {"type": "Feature", "properties": {"norad_id": 31567, "name": "FENGYUN 1C DEB", "group": "fengyun-1c-debris", "lat": -37.18264639319065, "lon": 44.06845985754733, "alt_km": 843.2537792375488, "timestamp": "2025-12-27T22:26:48.886139+00:00", "meta": {"OBJECT_NAME": "FENGYUN 1C DEB", "OBJECT_ID": "1999-025BZJ", "EPOCH": "2025-12-27T11:02:32.250336", "MEAN_MOTION": 13.92996001, "ECCENTRICITY": 0.0186186, "INCLINATION": 102.3176, "RA_OF_ASC_NODE": 232.9783, "ARG_OF_PERICENTER": 273.5012, "MEAN_ANOMALY": 84.4858, "EPHEMERIS_TYPE": 0, "CLASSIFICATION_TYPE": "U", "NORAD_CAT_ID": 31567, "ELEMENT_SET_NO": 999, "REV_AT_EPOCH": 67614, "BSTAR": 0.0028077, "MEAN_MOTION_DOT": 4.139e-05, "MEAN_MOTION_DDOT": 0}, "tle": {"line1": "1 31567U 99025BZJ 25361.46009549  .00004139  00000+0  28077-2 0  9993", "line2": "2 31567 102.3176 232.9783 0186186 273.5012  84.4858 13.92996001676149"}}, "geometry": {"type": "Point", "coordinates": [44.06845985754733, -37.18264639319065]}}, {"type": "Feature", "properties": {"norad_id": 31568, "name": "FENGYUN 1C DEB", "group": "fengyun-1c-debris", "lat": -64.76252625508384, "lon": 41.97889302039459, "alt_km": 976.0912364083115, "timestamp": "2025-12-27T22:26:48.886149+00:00", "meta": {"OBJECT_NAME": "FENGYUN 1C DEB", "OBJECT_ID": "1999-025BZK", "EPOCH": "2025-12-22T23:13:36.644736", "MEAN_MOTION": 14.03431945, "ECCENTRICITY": 0.01239953, "INCLINATION": 102.049, "RA_OF_ASC_NODE": 242.3634, "ARG_OF_PERICENTER": 93.8828, "MEAN_ANOMALY": 267.6513, "EPHEMERIS_TYPE": 0, "CLASSIFICATION_TYPE": "U", "NORAD_CAT_ID": 31568, "ELEMENT_SET_NO": 999, "REV_AT_EPOCH": 94723, "BSTAR": 0.0030433024, "MEAN_MOTION_DOT": 5.034e-05, "MEAN_MOTION_DDOT": 0}, "tle": {"line1": "1 31568U 99025BZK 25356.96778524  .00005034  00000+0  30433-2 0  9993", "line2": "2 31568 102.0490 242.3634 0123995  93.8828 267.6513 14.03431945947231"}}, "geometry": {"type": "Point", "coordinates": [41.97889302039459, -64.76252625508384]}}, {"type": "Feature", "properties": {"norad_id": 31569, "name": "FENGYUN 1C DEB", "group": "fengyun-1c-debris", "lat": 3.5392080821495013, "lon": 163.90370982543033, "alt_km": 805.0864160695519, "timestamp": "2025-12-27T22:26:48.886158+00:00", "meta": {"OBJECT_NAME": "FENGYUN 1C DEB", "OBJECT_ID": "1999-025BZL", "EPOCH": "2025-12-26T06:00:17.966016", "MEAN_MOTION": 13.95617313, "ECCENTRICITY": 0.0174856, "INCLINATION": 102.6154, "RA_OF_ASC_NODE": 162.3987, "ARG_OF_PERICENTER": 333.5969, "MEAN_ANOMALY": 206.7911, "EPHEMERIS_TYPE": 0, "CLASSIFICATION_TYPE": "U", "NORAD_CAT_ID": 31569, "ELEMENT_SET_NO": 999, "REV_AT_EPOCH": 93867, "BSTAR": 0.0023981, "MEAN_MOTION_DOT": 3.638e-05, "MEAN_MOTION_DDOT": 0}, "tle": {"line1": "1 31569U 99025BZL 25360.25020794  .00003638  00000+0  23981-2 0  9998", "line2": "2 31569 102.6154 162.3987 0174856 333.5969 206.7911 13.95617313938678"}}, "geometry": {"type": "Point", "coordinates": [163.90370982543033, 3.5392080821495013]}}, {"type": "Feature", "properties": {"norad_id": 31570, "name": "FENGYUN 1C DEB", "group": "fengyun-1c-debris", "lat": 64.6071713509407, "lon": 19.336500278966664, "alt_km": 852.2779143452744, "timestamp": "2025-12-27T22:26:48.886169+00:00", "meta": {"OBJECT_NAME": "FENGYUN 1C DEB", "OBJECT_ID": "1999-025BZM", "EPOCH": "2025-12-19T23:45:35.930016", "MEAN_MOTION": 14.25330142, "ECCENTRICITY": 0.01547682, "INCLINATION": 102.5663, "RA_OF_ASC_NODE": 36.0247, "ARG_OF_PERICENTER": 206.1842, "MEAN_ANOMALY": 153.1437, "EPHEMERIS_TYPE": 0, "CLASSIFICATION_TYPE": "U", "NORAD_CAT_ID": 31570, "ELEMENT_SET_NO": 999, "REV_AT_EPOCH": 63470, "BSTAR": 0.0019503601, "MEAN_MOTION_DOT": 5.132e-05, "MEAN_MOTION_DDOT": 0}, "tle": {"line1": "1 31570U 99025BZM 25353.98999919  .00005132  00000+0  19504-2 0  9993", "line2": "2 31570 102.5663  36.0247 0154768 206.1842 153.1437 14.25330142634706"}}, "geometry": {"type": "Point", "coordinates": [19.336500278966664, 64.6071713509407]}}, {"type": "Feature", "properties": {"norad_id": 31608, "name": "FENGYUN 1C DEB", "group": "fengyun-1c-debris", "lat": -47.24545258602803, "lon": -68.28881335713183, "alt_km": 668.1300349967896, "timestamp": "2025-12-27T22:26:48.886178+00:00", "meta": {"OBJECT_NAME": "FENGYUN 1C DEB", "OBJECT_ID": "1999-025BZN", "EPOCH": "2025-12-17T14:09:29.850912", "MEAN_MOTION": 14.85908283, "ECCENTRICITY": 0.01457059, "INCLINATION": 98.3797, "RA_OF_ASC_NODE": 109.9897, "ARG_OF_PERICENTER": 22.0076, "MEAN_ANOMALY": 338.7309, "EPHEMERIS_TYPE": 0, "CLASSIFICATION_TYPE": "U", "NORAD_CAT_ID": 31608, "ELEMENT_SET_NO": 999, "REV_AT_EPOCH": 98705, "BSTAR": 0.00045964647, "MEAN_MOTION_DOT": 4.79e-05, "MEAN_MOTION_DDOT": 0}, "tle": {"line1": "1 31608U 99025BZN 25351.58992883  .00004790  00000+0  45965-3 0  9992", "line2": "2 31608  98.3797 109.9897 0145705  22.0076 338.7309 14.85908283987055"}}, "geometry": {"type": "Point", "coordinates": [-68.28881335713183, -47.24545258602803]}}, {"type": "Feature", "properties": {"norad_id": 31609, "name": "FENGYUN 1C DEB", "group": "fengyun-1c-debris", "lat": -11.659059799767478, "lon": -150.94619320120086, "alt_km": 837.7442155671024, "timestamp": "2025-12-27T22:26:48.886188+00:00", "meta": {"OBJECT_NAME": "FENGYUN 1C DEB", "OBJECT_ID": "1999-025BZP", "EPOCH": "2025-12-22T21:42:13.279104", "MEAN_MOTION": 14.15844126, "ECCENTRICITY": 0.0094714, "INCLINATION": 99.2139, "RA_OF_ASC_NODE": 25.7728, "ARG_OF_PERICENTER": 291.5289, "MEAN_ANOMALY": 191.9396, "EPHEMERIS_TYPE": 0, "CLASSIFICATION_TYPE": "U", "NORAD_CAT_ID": 31609, "ELEMENT_SET_NO": 999, "REV_AT_EPOCH": 66228, "BSTAR": 0.002391, "MEAN_MOTION_DOT": 4.866e-05, "MEAN_MOTION_DDOT": 0}, "tle": {"line1": "1 31609U 99025BZP 25356.90432036  .00004866  00000+0  23910-2 0  9992", "line2": "2 31609  99.2139  25.7728 0094714 291.5289 191.9396 14.15844126662284"}}, "geometry": {"type": "Point", "coordinates": [-150.94619320120086, -11.659059799767478]}}, {"type": "Feature", "properties": {"norad_id": 31612, "name": "FENGYUN 1C DEB", "group": "fengyun-1c-debris", "lat": -8.248597116543603, "lon": -73.62192624653743, "alt_km": 329.120613254564, "timestamp": "2025-12-27T22:26:48.886198+00:00", "meta": {"OBJECT_NAME": "FENGYUN 1C DEB", "OBJECT_ID": "1999-025BZS", "EPOCH": "2025-12-27T05:45:23.054688", "MEAN_MOTION": 15.79066717, "ECCENTRICITY": 0.0027198, "INCLINATION": 100.3322, "RA_OF_ASC_NODE": 283.8238, "ARG_OF_PERICENTER": 63.9502, "MEAN_ANOMALY": 296.455, "EPHEMERIS_TYPE": 0, "CLASSIFICATION_TYPE": "U", "NORAD_CAT_ID": 31612, "ELEMENT_SET_NO": 999, "REV_AT_EPOCH": 233, "BSTAR": 0.0023297, "MEAN_MOTION_DOT": 0.0044414, "MEAN_MOTION_DDOT": 0}, "tle": {"line1": "1 31612U 99025BZS 25361.23985017  .00444140  00000+0  23297-2 0  9991", "line2": "2 31612 100.3322 283.8238 0027198  63.9502 296.4550 15.79066717  2330"}}, "geometry": {"type": "Point", "coordinates": [-73.62192624653743, -8.248597116543603]}}, {"type": "Feature", "properties": {"norad_id": 31613, "name": "FENGYUN 1C DEB", "group": "fengyun-1c-debris", "lat": -24.842423428274333, "lon": 3.0441158955507372, "alt_km": 1216.8371816585168, "timestamp": "2025-12-27T22:26:48.886208+00:00", "meta": {"OBJECT_NAME": "FENGYUN 1C DEB", "OBJECT_ID": "1999-025BZT", "EPOCH": "2025-12-23T06:31:23.498400", "MEAN_MOTION": 13.63471347, "ECCENTRICITY": 0.03426742, "INCLINATION": 98.424, "RA_OF_ASC_NODE": 182.93, "ARG_OF_PERICENTER": 78.1321, "MEAN_ANOMALY": 285.8034, "EPHEMERIS_TYPE": 0, "CLASSIFICATION_TYPE": "U", "NORAD_CAT_ID": 31613, "ELEMENT_SET_NO": 999, "REV_AT_EPOCH": 91905, "BSTAR": 0.0011595288, "MEAN_MOTION_DOT": 1.328e-05, "MEAN_MOTION_DDOT": 0}, "tle": {"line1": "1 31613U 99025BZT 25357.27179975  .00001328  00000+0  11595-2 0  9994", "line2": "2 31613  98.4240 182.9300 0342674  78.1321 285.8034 13.63471347919057"}}, "geometry": {"type": "Point", "coordinates": [3.0441158955507372, -24.842423428274333]}}, {"type": "Feature", "properties": {"norad_id": 31614, "name": "FENGYUN 1C DEB", "group": "fengyun-1c-debris", "lat": 73.99040063697439, "lon": -123.40878655047867, "alt_km": 563.9748041258044, "timestamp": "2025-12-27T22:26:48.886218+00:00", "meta": {"OBJECT_NAME": "FENGYUN 1C DEB", "OBJECT_ID": "1999-025BZU", "EPOCH": "2025-12-27T06:37:55.134048", "MEAN_MOTION": 15.0006358, "ECCENTRICITY": 0.0016747, "INCLINATION": 98.9716, "RA_OF_ASC_NODE": 269.2411, "ARG_OF_PERICENTER": 324.3086, "MEAN_ANOMALY": 155.6919, "EPHEMERIS_TYPE": 0, "CLASSIFICATION_TYPE": "U", "NORAD_CAT_ID": 31614, "ELEMENT_SET_NO": 999, "REV_AT_EPOCH": 96647, "BSTAR": 0.0086938, "MEAN_MOTION_DOT": 0.00110184, "MEAN_MOTION_DDOT": 0}, "tle": {"line1": "1 31614U 99025BZU 25361.27633257  .00110184  00000+0  86938-2 0  9992", "line2": "2 31614  98.9716 269.2411 0016747 324.3086 155.6919 15.00063580966479"}}, "geometry": {"type": "Point", "coordinates": [-123.40878655047867, 73.99040063697439]}}, {"type": "Feature", "properties": {"norad_id": 31615, "name": "FENGYUN 1C DEB", "group": "fengyun-1c-debris", "lat": 50.804759869463226, "lon": 42.88165957045271, "alt_km": 858.5028302980618, "timestamp": "2025-12-27T22:26:48.886228+00:00", "meta": {"OBJECT_NAME": "FENGYUN 1C DEB", "OBJECT_ID": "1999-025BZV", "EPOCH": "2025-12-26T09:24:16.312608", "MEAN_MOTION": 14.35601551, "ECCENTRICITY": 0.01673455, "INCLINATION": 99.1382, "RA_OF_ASC_NODE": 52.6312, "ARG_OF_PERICENTER": 276.6776, "MEAN_ANOMALY": 81.5387, "EPHEMERIS_TYPE": 0, "CLASSIFICATION_TYPE": "U", "NORAD_CAT_ID": 31615, "ELEMENT_SET_NO": 999, "REV_AT_EPOCH": 65474, "BSTAR": 0.0035837583, "MEAN_MOTION_DOT": 0.00012077, "MEAN_MOTION_DDOT": 0}, "tle": {"line1": "1 31615U 99025BZV 25360.39185547  .00012077  00000+0  35838-2 0  9994", "line2": "2 31615  99.1382  52.6312 0167345 276.6776  81.5387 14.35601551654745"}}, "geometry": {"type": "Point", "coordinates": [42.88165957045271, 50.804759869463226]}}]}